{
  "norad_id": 39731,
  "name": "KAZEOSAT 1",
  "history": [
    {
      "epoch": "2026-03-28T21:09:24.209280Z",
      "apogee_km": 752.5101165388733,
      "perigee_km": 750.9901671979705,
      "latitude_deg": 2.328731557885635e-05,
      "longitude_deg": 18.665112878131804,
      "height_km": 754.8105475693673,
      "semi_major_axis_km": 7129.887141868422,
      "eccentricity": 0.00010659,
      "inclination_deg": 98.3251,
      "raan_deg": 162.3116,
      "arg_perigee_deg": 97.9645,
      "mean_anomaly_deg": 262.1666,
      "mean_motion_rev_day": 14.42044886
    },
    {
      "epoch": "2026-03-29T05:28:59.063232Z",
      "apogee_km": 752.5058722181984,
      "perigee_km": 750.9914845001149,
      "latitude_deg": -9.696336007047898e-06,
      "longitude_deg": -106.23355802598216,
      "height_km": 754.8184256086148,
      "semi_major_axis_km": 7129.885678359156,
      "eccentricity": 0.0001062,
      "inclination_deg": 98.3251,
      "raan_deg": 162.6501,
      "arg_perigee_deg": 98.7071,
      "mean_anomaly_deg": 261.4239,
      "mean_motion_rev_day": 14.4204533
    }
  ]
}